STARLINK-34974          
1 65221C 25176Z   26179.44562500  .00059144  00000+0  17483-2 0  1795
2 65221  53.1586 356.5511 0001112 105.7346 195.6249 15.34345083    16
STARLINK-34999          
1 65222C 25176AA  26179.49562500  .00043505  00000+0  12849-2 0  1796
2 65222  53.1601 356.7325 0001313 102.5540 265.8659 15.34381066    10
STARLINK-34996          
1 65223C 25176AB  26179.46159722  .00049236  00000+0  14545-2 0  1794
2 65223  53.1599 356.8652 0001009 101.7880  90.1968 15.34370497    19
STARLINK-34975          
1 65224C 25176AC  26179.42201389  .00053579  00000+0  15834-2 0  1795
2 65224  53.1588 356.8231 0000791 106.7449 342.7543 15.34357226    14
STARLINK-34257          
1 65225C 25176AD  26179.45048611  .00051130  00000+0  15100-2 0  1793
2 65225  53.1599 356.7313 0001181  90.1132 133.4882 15.34379060    17
STARLINK-34842          
1 65235C 25179A   26179.51506944  .00069193  00000+0  48039-2 0  1797
2 65235  97.2972 220.8781 0001563  95.0852  83.8495 15.05623973    10
STARLINK-34938          
1 65236C 25179B   26179.42756944  .00050031  00000+0  34745-2 0  1795
2 65236  97.2976 220.7140 0001672 111.8711 118.1224 15.05623457    14
STARLINK-34958          
1 65237C 25179C   26179.48104167  .00082290  00000+0  57138-2 0  1799
2 65237  97.2974 220.7248 0001282 114.5480 315.1149 15.05613768    11
STARLINK-34818          
1 65238C 25179D   26179.50048611  .00076012  00000+0  52778-2 0  1794
2 65238  97.2971 220.8289 0001983 117.7423 252.2153 15.05616396    11
STARLINK-34964          
1 65239C 25179E   26179.51159722  .00075841  00000+0  52657-2 0  1797
2 65239  97.2971 220.7339 0001727 118.3519  71.8376 15.05618149    16
STARLINK-34953          
1 65240C 25179F   26179.52687500  .00070515  00000+0  48957-2 0  1791
2 65240  97.2970 220.7943 0002499 134.2021 243.7172 15.05621554    18
STARLINK-34969          
1 65241C 25179G   26179.42340278  .00046008  00000+0  31951-2 0  1795
2 65241  97.2975 220.7295 0001575 102.7240 149.6904 15.05625272    19
STARLINK-34963          
1 65242C 25179H   26179.51020833  .00073234  00000+0  50851-2 0  1799
2 65242  97.2969 220.8575 0001746 107.9154 359.6979 15.05617091    11
STARLINK-34982          
1 65243C 25179J   26179.51854167  .00073612  00000+0  51103-2 0  1796
2 65243  97.2971 220.7739 0002826 110.9593 191.8288 15.05621777    12
STARLINK-34990          
1 65244C 25179K   26179.48798611  .00071695  00000+0  49782-2 0  1793
2 65244  97.2972 220.8039 0002350 117.5430 154.7123 15.05617091    13
STARLINK-34977          
1 65245C 25179L   26179.42618056  .00043640  00000+0  30310-2 0  1798
2 65245  97.2977 220.7059 0001764  92.5260 114.9529 15.05621650    15
STARLINK-34959          
1 65246C 25179M   26179.48034722  .00070510  00000+0  48950-2 0  1792
2 65246  97.3116 220.7097 0001318 117.1030 248.9964 15.05626290    14
STARLINK-34923          
1 65247C 25179N   26179.51229167  .00070588  00000+0  49011-2 0  1790
2 65247  97.2971 220.7417 0001455 115.0755  93.8793 15.05620588    13
STARLINK-34962          
1 65248C 25179P   26179.42756944  .00050613  00000+0  35150-2 0  1795
2 65248  97.2974 220.7274 0001989 124.7238 135.2603 15.05621591    19
STARLINK-34925          
1 65249C 25179Q   26179.46506944  .00097264  00000+0  67545-2 0  1799
2 65249  97.2974 220.8085 0001396  77.7571 130.2302 15.05600894    14
STARLINK-34973          
1 65250C 25179R   26179.51993056  .00072408  00000+0  50274-2 0  1795
2 65250  97.2969 220.8804 0001150 102.2985  87.9731 15.05621067    19
STARLINK-34989          
1 65251C 25179S   26179.52687500  .00073057  00000+0  50725-2 0  1793
2 65251  97.2968 220.8802 0001306 139.7093  73.1753 15.05620186    17
STARLINK-34961          
1 65252C 25179T   26179.46854167  .00077506  00000+0  53820-2 0  1794
2 65252  97.2973 220.7793 0002013 106.8299  45.0982 15.05612713    10
STARLINK-34933          
1 65253C 25179U   26179.46923611  .00072295  00000+0  50202-2 0  1797
2 65253  97.2974 220.7205 0001126 104.4932 276.2212 15.05616161    17
STARLINK-34979          
1 65254C 25179V   26179.51715278  .00076936  00000+0  53416-2 0  1798
2 65254  97.2972 220.7531 0001680 154.0566  96.2173 15.05619160    15
STARLINK-34987          
1 65255C 25179W   26179.52479167  .00072301  00000+0  50199-2 0  1791
2 65255  97.2972 220.7858 0001124 114.0879 237.5486 15.05621238    10
STARLINK-34971          
1 65256C 25179X   26179.44770833  .00047258  00000+0  32817-2 0  1797
2 65256  97.2974 220.7726 0002102 120.3342 308.7321 15.05627289    10
STARLINK-34966          
1 65257C 25179Y   26179.49770833  .00075176  00000+0  52199-2 0  1798
2 65257  97.2972 220.8332 0001768 138.8885 231.0211 15.05615877    12
STARLINK-34980          
1 65258C 25179Z   26179.45118056  .00070466  00000+0  48932-2 0  1795
2 65258  97.2975 220.7429 0002359 120.6707 252.2193 15.05614892    11
STARLINK-34922          
1 65273C 25184A   26179.50395833  .00083080  00000+0  57686-2 0  1796
2 65273  97.2972 230.5276 0001585 128.6323 354.5841 15.05613120    15
STARLINK-34904          
1 65274C 25184B   26179.44493056  .00038592  00000+0  26801-2 0  1799
2 65274  97.2975 230.4084 0000954 109.6058 263.8886 15.05629306    12
STARLINK-34954          
1 65275C 25184C   26179.43104167  .00029531  00000+0  20508-2 0  1792
2 65275  97.2977 230.3495 0002360 104.5523  88.7257 15.05633275    10
STARLINK-34968          
1 65276C 25184D   26179.49284722  .00058975  00000+0  40951-2 0  1793
2 65276  97.2975 230.4865 0001450  91.9866 256.0521 15.05623783    16
STARLINK-34935          
1 65277C 25184E   26179.46159722  .00057154  00000+0  39696-2 0  1794
2 65277  97.2975 230.5072 0001941  93.0752 205.6738 15.05615050    18
STARLINK-35000          
1 65278C 25184F   26179.50048611  .00073387  00000+0  50976-2 0  1794
2 65278  97.2974 230.4415 0001986 114.5773 154.9307 15.05603161    17
STARLINK-35023          
1 65279C 25184G   26179.45534722  .00056730  00000+0  39396-2 0  1798
2 65279  97.2976 230.4320 0000805 109.3063 350.6077 15.05621378    17
STARLINK-35001          
1 65280C 25184H   26179.43312500  .00036674  00000+0  25470-2 0  1799
2 65280  97.2979 230.4503 0001427  94.4252 335.1031 15.05628303    13
STARLINK-35010          
1 65281C 25184J   26179.47340278  .00066808  00000+0  46394-2 0  1797
2 65281  97.2975 230.5053 0001423 119.4865 213.2083 15.05616762    14
STARLINK-35021          
1 65282C 25184K   26179.44145833  .00030516  00000+0  21193-2 0  1792
2 65282  97.2975 230.5014 0002225  97.0073 122.6394 15.05631576    13
STARLINK-35015          
1 65283C 25184L   26179.47618056  .00060026  00000+0  41684-2 0  1794
2 65283  97.2974 230.4053 0001683 117.6460 350.1430 15.05620166    13
STARLINK-35006          
1 65284C 25184M   26179.42895833  .00036875  00000+0  25609-2 0  1794
2 65284  97.2978 230.4333 0001109 121.2709 255.6841 15.05628924    14
STARLINK-34995          
1 65285C 25184N   26179.42548611  .00020156  00000+0  13998-2 0  1797
2 65285  97.2977 230.3970 0000931 115.7463 167.4134 15.05638766    17
STARLINK-35048          
1 65286C 25184P   26179.50048611  .00071600  00000+0  49718-2 0  1791
2 65286  97.2974 230.4873 0001229 111.5862 262.8409 15.05616924    13
STARLINK-35007          
1 65287C 25184Q   26179.49631944  .00068025  00000+0  47237-2 0  1798
2 65287  97.2973 230.4443 0001486 113.0346 148.8375 15.05617921    18
STARLINK-35018          
1 65288C 25184R   26179.45048611  .00050168  00000+0  34839-2 0  1791
2 65288  97.2980 230.4733 0001514 104.2708  74.2935 15.05624851    19
STARLINK-34845          
1 65289C 25184S   26179.43381944  .00036990  00000+0  25691-2 0  1792
2 65289  97.2977 230.4744 0001568  89.5463  43.7395 15.05625147    10
STARLINK-34984          
1 65290C 25184T   26179.50951389  .00084405  00000+0  58611-2 0  1790
2 65290  97.2974 230.5158 0001071 110.4633 357.8491 15.05610126    18
STARLINK-35002          
1 65291C 25184U   26179.43729167  .00031642  00000+0  21976-2 0  1799
2 65291  97.2976 230.3624 0001419 102.2041 139.9298 15.05630372    14
STARLINK-35017          
1 65292C 25184V   26179.45187500  .00047810  00000+0  33203-2 0  1791
2 65292  97.2976 230.5049 0001632 101.2844 159.7902 15.05623578    17
STARLINK-34951          
1 65293C 25184W   26179.46159722  .00060117  00000+0  41747-2 0  1795
2 65293  97.2977 230.4445 0001117 135.2122  13.5544 15.05620381    10
STARLINK-34613          
1 65294C 25184X   26179.51368056  .00077210  00000+0  53609-2 0  1796
2 65294  97.2972 230.4671 0002054 120.2907 250.6187 15.05616339    18
STARLINK-34834          
1 65295C 25184Y   26179.46506944  .00061987  00000+0  43047-2 0  1790
2 65295  97.2973 230.3778 0002053 108.2455 254.3609 15.05617727    12
STARLINK-34872          
1 65296C 25184Z   26179.46993056  .00059323  00000+0  41194-2 0  1797
2 65296  97.2974 230.4064 0001986 145.2454 303.6850 15.05621253    12
STARLINK-34899          
1 65323C 25189A   26179.52479167  .00065861  00000+0  21184-2 0  1793
2 65323  53.1599  51.1820 0001137 105.7776 353.6155 15.31661826    13
STARLINK-34196          
1 65324C 25189B   26179.47895833  .00065654  00000+0  21113-2 0  1792
2 65324  53.1600  51.3154 0001283  94.1835 161.9935 15.31668620    13
STARLINK-34911          
1 65325C 25189C   26179.50604167  .00077499  00000+0  22903-2 0  1793
2 65325  53.1602  52.0063 0000915  84.0879 267.5383 15.34344613    16
STARLINK-34902          
1 65326C 25189D   26179.52270833  .00072816  00000+0  24521-2 0  1791
2 65326  53.1596  52.0424 0001315  99.0408 285.6436 15.30183037    16
STARLINK-34880          
1 65327C 25189E   26179.43868056  .00046271  00000+0  15594-2 0  1798
2 65327  53.1596  52.4591 0001380  95.9339 174.0422 15.30170515    19
STARLINK-34885          
1 65328C 25189F   26179.44145833  .00050065  00000+0  16104-2 0  1795
2 65328  53.1597  51.6916 0001202  99.1251 208.9864 15.31668056    15
